     2              NAVIGATION DATA                         RINEX VERSION / TYPE
CCRINEXN V1.6.0 UX  CDDIS               04-JUN-18 23:30     PGM / RUN BY / DATE 
IGS BROADCAST EPHEMERIS FILE                                COMMENT             
    0.6519D-08  0.2235D-07 -0.5960D-07 -0.1192D-06          ION ALPHA           
    0.8602D+05  0.9830D+05 -0.6554D+05 -0.5243D+06          ION BETA            
    0.000000000000D+00 0.266453525910D-14   319488     2004 DELTA-UTC: A0,A1,T,W
    18                                                      LEAP SECONDS        
                                                            END OF HEADER
 3 18  6  4 20  0  0.0 0.832467339933D-04 0.693489710102D-11 0.000000000000D+00
    0.320000000000D+02-0.305937500000D+02 0.443875647349D-08 0.158733915950D+00
   -0.166706740856D-05 0.140437169466D-02 0.900030136108D-05 0.515374862480D+04
    0.158400000000D+06 0.279396772385D-07-0.183029644381D+01 0.223517417908D-07
    0.960743299089D+00 0.203562500000D+03 0.430610381359D+00-0.792747290035D-08
    0.742888112137D-10 0.100000000000D+01 0.200400000000D+04 0.000000000000D+00
    0.200000000000D+01 0.000000000000D+00 0.232830643654D-08 0.320000000000D+02
    0.151230000000D+06 0.000000000000D+00 0.000000000000D+00 0.000000000000D+00
 7 18  6  4 20  0  0.0 0.180664006621D-03-0.613908923697D-11 0.000000000000D+00
    0.990000000000D+02 0.147187500000D+02 0.459804860853D-08 0.349365719022D+00
    0.856816768646D-06 0.116797413211D-01 0.744499266148D-05 0.515365993881D+04
    0.158400000000D+06-0.149011611938D-07 0.281109861583D+00 0.238418579102D-06
    0.958864804019D+00 0.236750000000D+03-0.252775396548D+01-0.816784062607D-08
   -0.241081460350D-09 0.100000000000D+01 0.200400000000D+04 0.000000000000D+00
    0.200000000000D+01 0.000000000000D+00-0.111758708954D-07 0.990000000000D+02
    0.151230000000D+06 0.000000000000D+00 0.000000000000D+00 0.000000000000D+00
 9 18  6  4 20  0  0.0 0.514509622008D-03 0.227373675443D-12 0.000000000000D+00
    0.820000000000D+02 0.211875000000D+02 0.474984052090D-08-0.290795860764D+01
    0.115111470222D-05 0.923312618397D-03 0.708922743797D-05 0.515360837555D+04
    0.158400000000D+06-0.167638063431D-07-0.796228144475D+00-0.465661287308D-07
    0.952597895572D+00 0.240218750000D+03 0.186912481463D+01-0.807069344688D-08
    0.589310267252D-10 0.100000000000D+01 0.200400000000D+04 0.000000000000D+00
    0.200000000000D+01 0.000000000000D+00 0.931322574616D-09 0.820000000000D+02
    0.151230000000D+06 0.000000000000D+00 0.000000000000D+00 0.000000000000D+00
22 18  6  4 20  0  0.0-0.415004324168D-03-0.127329258248D-10 0.000000000000D+00
    0.640000000000D+02-0.401250000000D+02 0.521235987705D-08 0.252378013869D+01
   -0.208988785744D-05 0.737800193019D-02 0.863708555698D-05 0.515379965782D+04
    0.158400000000D+06 0.100582838059D-06-0.189019737714D+01-0.260770320892D-07
    0.924864800171D+00 0.189937500000D+03-0.153305323931D+01-0.815176814939D-08
    0.503592410828D-10 0.100000000000D+01 0.200400000000D+04 0.000000000000D+00
    0.200000000000D+01 0.000000000000D+00-0.176951289177D-07 0.640000000000D+02
    0.151230000000D+06 0.000000000000D+00 0.000000000000D+00 0.000000000000D+00
30 18  6  4 20  0  0.0 0.663269311190D-04-0.443378667114D-11 0.000000000000D+00
    0.580000000000D+02 0.139062500000D+02 0.483948747743D-08 0.431935213138D+00
    0.746920704842D-06 0.344941893127D-02 0.734068453312D-05 0.515373151588D+04
    0.158400000000D+06 0.428408384323D-07 0.314561585678D+00 0.484287738800D-07
    0.944456027927D+00 0.229250000000D+03-0.307121944898D+01-0.821141377116D-08
   -0.208222952769D-09 0.100000000000D+01 0.200400000000D+04 0.000000000000D+00
    0.200000000000D+01 0.000000000000D+00 0.372529029846D-08 0.580000000000D+02
    0.151230000000D+06 0.000000000000D+00 0.000000000000D+00 0.000000000000D+00
31 18  6  4 20  0  0.0 0.116882380098D-03-0.261479726760D-11 0.000000000000D+00
    0.136000000000D+03 0.133750000000D+02 0.449875881993D-08 0.163821035095D+00
    0.854954123497D-06 0.875736563467D-02 0.753253698349D-05 0.515366835976D+04
    0.158400000000D+06 0.135973095894D-06 0.293636596491D+00-0.707805156708D-07
    0.963512629346D+00 0.233062500000D+03-0.127972736658D+00-0.812248119109D-08
   -0.205008539429D-09 0.100000000000D+01 0.200400000000D+04 0.000000000000D+00
    0.200000000000D+01 0.000000000000D+00-0.135041773319D-07 0.136000000000D+03
    0.151200000000D+06 0.400000000000D+01 0.000000000000D+00 0.000000000000D+00
